SL-14 R/B               
1 16496U 86006B   26112.26430656  .00000571  00000+0  57535-4 0  9991
2 16496  82.5290 218.7273 0077713 127.6150 233.2155 14.86886324155687
COSMOS 1743             
1 16719U 86034A   26112.18379635  .00037069  00000+0  41788-3 0  9994
2 16719  82.5320  28.0537 0007470 111.4164 248.7892 15.62321294187031
SL-14 R/B               
1 16792U 86046B   26112.25069972  .00000347  00000+0  36989-4 0  9993
2 16792  82.4842  39.0216 0024676  84.3704 276.0326 14.85631168132877
SL-14 R/B               
1 16882U 86055B   26112.32232442  .00000325  00000+0  34599-4 0  9996
2 16882  82.5182  85.6474 0018719 182.9727 293.0327 14.85679706125848
AJISAI (EGS)            
1 16908U 86061A   26112.25118304 -.00000090  00000+0  51854-4 0  9997
2 16908  50.0105 319.3992 0011413  38.8292  72.3282 12.44515893473421
SL-14 R/B               
1 17567U 87024B   26112.26826449  .00000353  00000+0  37249-4 0  9999
2 17567  82.5294  51.7995 0019679 114.3350 245.9924 14.86172232 94603
COSMOS 1833             
1 17589U 87027A   26112.04223386 -.00000237  00000+0 -10124-3 0  9998
2 17589  70.9163 234.8897 0022445 147.6808 212.5694 14.13035237 16443
SL-16 R/B               
1 17590U 87027B   26112.24284977  .00000178  00000+0  11207-3 0  9990
2 17590  71.0030 184.7171 0003443  33.9960 326.1384 14.17169326 21514
SL-14 R/B               
1 17912U 87038B   26111.88136476  .00000325  00000+0  34848-4 0  9990
2 17912  82.4997 256.1059 0019827  26.1037 334.1174 14.85407106 85647
COSMOS 1844             
1 17973U 87041A   26111.96020336 -.00000296  00000+0 -12837-3 0  9999
2 17973  70.8986 302.9082 0032714 314.3889  45.4554 14.14562385  9706
SL-14 R/B               
1 18153U 87055B   26111.98536854  .00000280  00000+0  29435-4 0  9998
2 18153  82.4970 308.2209 0019481 227.6855 132.2711 14.85666187 76363
COSMOS 1867             
1 18187U 87060A   26112.24435864 -.00000049  00000+0  19389-4 0  9991
2 18187  65.0106 184.7286 0015330 280.8360  79.0999 14.31509375 26177
SL-14 R/B               
1 18749U 88001B   26112.11840887  .00000264  00000+0  27572-4 0  9993
2 18749  82.5129 154.5236 0019660  94.6643 265.6819 14.85568035 48473
COSMOS 1933             
1 18958U 88020A   26112.22464077  .00002839  00000+0  13668-3 0  9991
2 18958  82.5152 207.8317 0005165  62.6036 297.5723 15.18365492 56835
SL-3 R/B                
1 19046U 88032B   26112.24290799  .00003804  00000+0  17633-3 0  9992
2 19046  97.5241  95.3716 0027681  82.8400 277.5981 15.20353842 58721
SL-16 R/B               
1 19120U 88039B   26112.03289588  .00000000  00000+0  23031-4 0  9998
2 19120  71.0156 336.9005 0024081 273.0462  86.7907 14.19622663964534
COSMOS 1953             
1 19210U 88050A   26111.95355704  .00007241  00000+0  25443-3 0  9997
2 19210  82.5051 114.7024 0009882 341.6927  18.3955 15.29162649 44390
