[{"OBJECT_NAME":"SL-14 R/B","OBJECT_ID":"1986-006B","EPOCH":"2026-04-22T06:20:36.086784","MEAN_MOTION":14.86886324,"ECCENTRICITY":0.00777135,"INCLINATION":82.529,"RA_OF_ASC_NODE":218.7273,"ARG_OF_PERICENTER":127.615,"MEAN_ANOMALY":233.2155,"EPHEMERIS_TYPE":0,"CLASSIFICATION_TYPE":"U","NORAD_CAT_ID":16496,"ELEMENT_SET_NO":999,"REV_AT_EPOCH":15568,"BSTAR":5.753468e-5,"MEAN_MOTION_DOT":5.71e-6,"MEAN_MOTION_DDOT":0},{"OBJECT_NAME":"COSMOS 1743","OBJECT_ID":"1986-034A","EPOCH":"2026-04-22T04:24:40.004640","MEAN_MOTION":15.62321294,"ECCENTRICITY":0.00074707,"INCLINATION":82.532,"RA_OF_ASC_NODE":28.0537,"ARG_OF_PERICENTER":111.4164,"MEAN_ANOMALY":248.7892,"EPHEMERIS_TYPE":0,"CLASSIFICATION_TYPE":"U","NORAD_CAT_ID":16719,"ELEMENT_SET_NO":999,"REV_AT_EPOCH":18703,"BSTAR":0.00041787557,"MEAN_MOTION_DOT":0.00037069,"MEAN_MOTION_DDOT":0},{"OBJECT_NAME":"SL-14 R/B","OBJECT_ID":"1986-046B","EPOCH":"2026-04-22T06:01:00.455808","MEAN_MOTION":14.85631168,"ECCENTRICITY":0.00246766,"INCLINATION":82.4842,"RA_OF_ASC_NODE":39.0216,"ARG_OF_PERICENTER":84.3704,"MEAN_ANOMALY":276.0326,"EPHEMERIS_TYPE":0,"CLASSIFICATION_TYPE":"U","NORAD_CAT_ID":16792,"ELEMENT_SET_NO":999,"REV_AT_EPOCH":13287,"BSTAR":3.6989477e-5,"MEAN_MOTION_DOT":3.47e-6,"MEAN_MOTION_DDOT":0},{"OBJECT_NAME":"SL-14 R/B","OBJECT_ID":"1986-055B","EPOCH":"2026-04-22T07:44:08.829888","MEAN_MOTION":14.85679706,"ECCENTRICITY":0.00187199,"INCLINATION":82.5182,"RA_OF_ASC_NODE":85.6474,"ARG_OF_PERICENTER":182.9727,"MEAN_ANOMALY":293.0327,"EPHEMERIS_TYPE":0,"CLASSIFICATION_TYPE":"U","NORAD_CAT_ID":16882,"ELEMENT_SET_NO":999,"REV_AT_EPOCH":12584,"BSTAR":3.4599364e-5,"MEAN_MOTION_DOT":3.25e-6,"MEAN_MOTION_DDOT":0},{"OBJECT_NAME":"AJISAI (EGS)","OBJECT_ID":"1986-061A","EPOCH":"2026-04-22T06:01:42.214656","MEAN_MOTION":12.44515893,"ECCENTRICITY":0.00114134,"INCLINATION":50.0105,"RA_OF_ASC_NODE":319.3992,"ARG_OF_PERICENTER":38.8292,"MEAN_ANOMALY":72.3282,"EPHEMERIS_TYPE":0,"CLASSIFICATION_TYPE":"U","NORAD_CAT_ID":16908,"ELEMENT_SET_NO":999,"REV_AT_EPOCH":47342,"BSTAR":5.1853634e-5,"MEAN_MOTION_DOT":-9.0e-7,"MEAN_MOTION_DDOT":0},{"OBJECT_NAME":"SL-14 R/B","OBJECT_ID":"1987-024B","EPOCH":"2026-04-22T06:26:18.051936","MEAN_MOTION":14.86172232,"ECCENTRICITY":0.00196792,"INCLINATION":82.5294,"RA_OF_ASC_NODE":51.7995,"ARG_OF_PERICENTER":114.335,"MEAN_ANOMALY":245.9924,"EPHEMERIS_TYPE":0,"CLASSIFICATION_TYPE":"U","NORAD_CAT_ID":17567,"ELEMENT_SET_NO":999,"REV_AT_EPOCH":9460,"BSTAR":3.7249428e-5,"MEAN_MOTION_DOT":3.53e-6,"MEAN_MOTION_DDOT":0},{"OBJECT_NAME":"COSMOS 1833","OBJECT_ID":"1987-027A","EPOCH":"2026-04-22T01:00:49.005504","MEAN_MOTION":14.13035237,"ECCENTRICITY":0.0022445,"INCLINATION":70.9163,"RA_OF_ASC_NODE":234.8897,"ARG_OF_PERICENTER":147.6808,"MEAN_ANOMALY":212.5694,"EPHEMERIS_TYPE":0,"CLASSIFICATION_TYPE":"U","NORAD_CAT_ID":17589,"ELEMENT_SET_NO":999,"REV_AT_EPOCH":1644,"BSTAR":-0.00010124334,"MEAN_MOTION_DOT":-2.37e-6,"MEAN_MOTION_DDOT":0},{"OBJECT_NAME":"SL-16 R/B","OBJECT_ID":"1987-027B","EPOCH":"2026-04-22T05:49:42.220128","MEAN_MOTION":14.17169326,"ECCENTRICITY":0.00034436,"INCLINATION":71.003,"RA_OF_ASC_NODE":184.7171,"ARG_OF_PERICENTER":33.996,"MEAN_ANOMALY":326.1384,"EPHEMERIS_TYPE":0,"CLASSIFICATION_TYPE":"U","NORAD_CAT_ID":17590,"ELEMENT_SET_NO":999,"REV_AT_EPOCH":2151,"BSTAR":0.00011206848,"MEAN_MOTION_DOT":1.78e-6,"MEAN_MOTION_DDOT":0},{"OBJECT_NAME":"SL-14 R/B","OBJECT_ID":"1987-038B","EPOCH":"2026-04-21T21:09:09.915264","MEAN_MOTION":14.85407106,"ECCENTRICITY":0.0019827,"INCLINATION":82.4997,"RA_OF_ASC_NODE":256.1059,"ARG_OF_PERICENTER":26.1037,"MEAN_ANOMALY":334.1174,"EPHEMERIS_TYPE":0,"CLASSIFICATION_TYPE":"U","NORAD_CAT_ID":17912,"ELEMENT_SET_NO":999,"REV_AT_EPOCH":8564,"BSTAR":3.4848e-5,"MEAN_MOTION_DOT":3.25e-6,"MEAN_MOTION_DDOT":0},{"OBJECT_NAME":"COSMOS 1844","OBJECT_ID":"1987-041A","EPOCH":"2026-04-21T23:02:41.570304","MEAN_MOTION":14.14562385,"ECCENTRICITY":0.0032714,"INCLINATION":70.8986,"RA_OF_ASC_NODE":302.9082,"ARG_OF_PERICENTER":314.3889,"MEAN_ANOMALY":45.4554,"EPHEMERIS_TYPE":0,"CLASSIFICATION_TYPE":"U","NORAD_CAT_ID":17973,"ELEMENT_SET_NO":999,"REV_AT_EPOCH":970,"BSTAR":-0.00012837,"MEAN_MOTION_DOT":-2.96e-6,"MEAN_MOTION_DDOT":0},{"OBJECT_NAME":"SL-14 R/B","OBJECT_ID":"1987-055B","EPOCH":"2026-04-21T23:38:55.841856","MEAN_MOTION":14.85666187,"ECCENTRICITY":0.00194815,"INCLINATION":82.497,"RA_OF_ASC_NODE":308.2209,"ARG_OF_PERICENTER":227.6855,"MEAN_ANOMALY":132.2711,"EPHEMERIS_TYPE":0,"CLASSIFICATION_TYPE":"U","NORAD_CAT_ID":18153,"ELEMENT_SET_NO":999,"REV_AT_EPOCH":7636,"BSTAR":2.9434608e-5,"MEAN_MOTION_DOT":2.8e-6,"MEAN_MOTION_DDOT":0},{"OBJECT_NAME":"COSMOS 1867","OBJECT_ID":"1987-060A","EPOCH":"2026-04-22T05:51:52.586496","MEAN_MOTION":14.31509375,"ECCENTRICITY":0.001533,"INCLINATION":65.0106,"RA_OF_ASC_NODE":184.7286,"ARG_OF_PERICENTER":280.836,"MEAN_ANOMALY":79.0999,"EPHEMERIS_TYPE":0,"CLASSIFICATION_TYPE":"U","NORAD_CAT_ID":18187,"ELEMENT_SET_NO":999,"REV_AT_EPOCH":2617,"BSTAR":1.9389349e-5,"MEAN_MOTION_DOT":-4.9e-7,"MEAN_MOTION_DDOT":0},{"OBJECT_NAME":"SL-14 R/B","OBJECT_ID":"1988-001B","EPOCH":"2026-04-22T02:50:30.526368","MEAN_MOTION":14.85568035,"ECCENTRICITY":0.001966,"INCLINATION":82.5129,"RA_OF_ASC_NODE":154.5236,"ARG_OF_PERICENTER":94.6643,"MEAN_ANOMALY":265.6819,"EPHEMERIS_TYPE":0,"CLASSIFICATION_TYPE":"U","NORAD_CAT_ID":18749,"ELEMENT_SET_NO":999,"REV_AT_EPOCH":4847,"BSTAR":2.7571908e-5,"MEAN_MOTION_DOT":2.64e-6,"MEAN_MOTION_DDOT":0},{"OBJECT_NAME":"COSMOS 1933","OBJECT_ID":"1988-020A","EPOCH":"2026-04-22T05:23:28.962528","MEAN_MOTION":15.18365492,"ECCENTRICITY":0.00051652,"INCLINATION":82.5152,"RA_OF_ASC_NODE":207.8317,"ARG_OF_PERICENTER":62.6036,"MEAN_ANOMALY":297.5723,"EPHEMERIS_TYPE":0,"CLASSIFICATION_TYPE":"U","NORAD_CAT_ID":18958,"ELEMENT_SET_NO":999,"REV_AT_EPOCH":5683,"BSTAR":0.00013667605,"MEAN_MOTION_DOT":2.839e-5,"MEAN_MOTION_DDOT":0},{"OBJECT_NAME":"SL-3 R/B","OBJECT_ID":"1988-032B","EPOCH":"2026-04-22T05:49:47.250336","MEAN_MOTION":15.20353842,"ECCENTRICITY":0.00276813,"INCLINATION":97.5241,"RA_OF_ASC_NODE":95.3716,"ARG_OF_PERICENTER":82.84,"MEAN_ANOMALY":277.5981,"EPHEMERIS_TYPE":0,"CLASSIFICATION_TYPE":"U","NORAD_CAT_ID":19046,"ELEMENT_SET_NO":999,"REV_AT_EPOCH":5872,"BSTAR":0.0001763337,"MEAN_MOTION_DOT":3.804e-5,"MEAN_MOTION_DDOT":0},{"OBJECT_NAME":"SL-16 R/B","OBJECT_ID":"1988-039B","EPOCH":"2026-04-22T00:47:22.204032","MEAN_MOTION":14.19622663,"ECCENTRICITY":0.00240817,"INCLINATION":71.0156,"RA_OF_ASC_NODE":336.9005,"ARG_OF_PERICENTER":273.0462,"MEAN_ANOMALY":86.7907,"EPHEMERIS_TYPE":0,"CLASSIFICATION_TYPE":"U","NORAD_CAT_ID":19120,"ELEMENT_SET_NO":999,"REV_AT_EPOCH":96453,"BSTAR":2.3031111e-5,"MEAN_MOTION_DOT":0,"MEAN_MOTION_DDOT":0},{"OBJECT_NAME":"COSMOS 1953","OBJECT_ID":"1988-050A","EPOCH":"2026-04-21T22:53:07.328256","MEAN_MOTION":15.29162649,"ECCENTRICITY":0.0009882,"INCLINATION":82.5051,"RA_OF_ASC_NODE":114.7024,"ARG_OF_PERICENTER":341.6927,"MEAN_ANOMALY":18.3955,"EPHEMERIS_TYPE":0,"CLASSIFICATION_TYPE":"U","NORAD_CAT_ID":19210,"ELEMENT_SET_NO":999,"REV_AT_EPOCH":4439,"BSTAR":0.00025443,"MEAN_MOTION_DOT":7.241e-5,"MEAN_MOTION_DDOT":0}]
